NORAD_CAT_ID,OBJECT_NAME,OBJECT_TYPE,EPOCH,MEAN_MOTION,ECCENTRICITY,INCLINATION,RA_OF_ASC_NODE,ARG_OF_PERICENTER,MEAN_ANOMALY,BSTAR,MEAN_MOTION_DOT,MEAN_MOTION_DDOT,TLE_LINE0,TLE_LINE1,TLE_LINE2,SEMIMAJOR_AXIS,PERIOD,APOGEE,PERIGEE,DECAYED
52472.0,STARLINK-3881,PAYLOAD,2022-06-27 22:00:00,15.5440435,0.0001579,53.2176,7.0120000000000005,37.9034,281.2418,-0.017514,-0.01062887,0.0,0 STARLINK-3881,1 52472U 22049X   22178.91667824 -.01062887  00000-0 -17514-1 0  9993,2 52472  53.2176   7.0120 0001579  37.9034 281.2418 15.54404350  1305,6782.022,92.64,404.958,402.816,0.0
52472.0,STARLINK-3881,PAYLOAD,2022-06-28 06:00:00,15.53644609,0.0001274,53.2176,5.4079,44.962,340.0619,-0.018007,-0.01062644,0.0,0 STARLINK-3881,1 52472U 22049X   22179.25001157 -.01062644  00000-0 -18007-1 0  9991,2 52472  53.2176   5.4079 0001274  44.9620 340.0619 15.53644609  8486,6784.232,92.685,406.962,405.233,0.0
52472.0,STARLINK-3881,PAYLOAD,2022-06-28 14:00:01,15.52883895,0.0001551,53.2177,3.8071,39.7254,50.2633,-0.018466,-0.01060186,0.0,0 STARLINK-3881,1 52472U 22049X   22179.58334491 -.01060186  00000-0 -18466-1 0  9995,2 52472  53.2177   3.8071 0001551  39.7254  50.2633 15.52883895  1305,6786.448,92.731,409.365,407.26,0.0
52472.0,STARLINK-3881,PAYLOAD,2022-06-28 22:00:00,15.52121735,0.0001803,53.2176,2.21,37.331,116.7095,-0.018891,-0.01055507,0.0,0 STARLINK-3881,1 52472U 22049X   22179.91667824 -.01055507  00000-0 -18891-1 0  9994,2 52472  53.2176   2.2100 0001803  37.3310 116.7095 15.52121735  1305,6788.669,92.776,411.758,409.31,0.0
52472.0,STARLINK-3881,PAYLOAD,2022-06-29 06:00:00,15.51366985,0.0001501,53.2176,0.6112,47.4297,169.8031,-0.019584,-0.01063868,0.0,0 STARLINK-3881,1 52472U 22049X   22180.25001157 -.01063868  00000-0 -19584-1 0  9993,2 52472  53.2176   0.6112 0001501  47.4297 169.8031 15.51366985  8630,6790.871,92.821,413.755,411.717,0.0
52472.0,STARLINK-3881,PAYLOAD,2022-06-29 14:00:01,15.50484722,0.0001536,53.2177,359.0159,42.5544,236.9244,-0.012509,-0.0066705,0.0,0 STARLINK-3881,1 52472U 22049X   22180.58334491 -.00667050  00000-0 -12509-1 0  9991,2 52472  53.2177 359.0159 0001536  42.5544 236.9244 15.50484722  8688,6793.446999999999,92.874,416.355,414.268,0.0
52472.0,STARLINK-3881,PAYLOAD,2022-06-29 22:00:00,15.49897334,0.0001525,53.2174,357.4238,43.9122,296.9197,-0.00035095,-0.00020327,0.0,0 STARLINK-3881,1 52472U 22049X   22180.91667824 -.00020327  00000-0 -35095-3 0  9994,2 52472  53.2174 357.4238 0001525  43.9122 296.9197 15.49897334  1300,6795.163000000001,92.909,418.064,415.992,0.0
52472.0,STARLINK-3881,PAYLOAD,2022-06-30 14:00:01,15.49896578,0.0001763,53.2152,354.2302,52.1782,50.3299,-0.00033299,-0.00019312,0.0,0 STARLINK-3881,1 52472U 22049X   22181.58334491 -.00019312  00000-0 -33299-3 0  9995,2 52472  53.2152 354.2302 0001763  52.1782  50.3299 15.49896578  1305,6795.165,92.909,418.228,415.832,0.0
52472.0,STARLINK-3881,PAYLOAD,2022-06-30 16:00:00,15.49893795,0.0001814,53.2151,353.8325,50.0703,157.6688,-0.00034848,-0.00020186,0.0,0 STARLINK-3881,1 52472U 22049X   22181.66667824 -.00020186  00000-0 -34848-3 0  9995,2 52472  53.2151 353.8325 0001814  50.0703 157.6688 15.49893795  8859,6795.1730000000025,92.91,418.271,415.806,0.0
52472.0,STARLINK-3881,PAYLOAD,2022-06-30 22:00:00,15.49861076,0.0001903,53.2153,352.6387,45.2936,118.1438,0.0010023,0.00056801,0.0,0 STARLINK-3881,1 52472U 22049X   22181.91667824  .00056801  00000-0  10023-2 0  9992,2 52472  53.2153 352.6387 0001903  45.2936 118.1438 15.49861076  1304,6795.269,92.912,418.427,415.841,0.0
52472.0,STARLINK-3881,PAYLOAD,2022-07-01 06:00:00,15.49884939,0.0001771999999999,53.2156,351.0436,49.1322,175.22099999999998,0.00030736,0.00017031,0.0,0 STARLINK-3881,1 52472U 22049X   22182.25001157  .00017031  00000-0  30736-3 0  9997,2 52472  53.2156 351.0436 0001772  49.1322 175.2210 15.49884939  8943,6795.199000000001,92.91,418.268,415.86,0.0
52472.0,STARLINK-3881,PAYLOAD,2022-07-01 14:00:01,15.49916839,0.0001849,53.2158,349.4509,51.5182,233.75,-0.00035356,-0.00020489,0.0,0 STARLINK-3881,1 52472U 22049X   22182.58334491 -.00020489  00000-0 -35356-3 0  9999,2 52472  53.2158 349.4509 0001849  51.5182 233.7500 15.49916839  1303,6795.106,92.908,418.228,415.715,0.0
52472.0,STARLINK-3881,PAYLOAD,2022-07-01 22:00:00,15.49883305,0.0002015,53.2157,347.8592,44.9996,301.2124,0.00084122,0.00047581,0.0,0 STARLINK-3881,1 52472U 22049X   22182.91667824  .00047581  00000-0  84122-3 0  9990,2 52472  53.2157 347.8592 0002015  44.9996 301.2124 15.49883305  1305,6795.204000000002,92.91,418.43800000000016,415.7,0.0
52472.0,STARLINK-3881,PAYLOAD,2022-07-02 14:00:01,15.50065004,0.0001758,53.2171,344.6749,47.1578,60.9011,-0.0080244,-0.00434319,0.0,0 STARLINK-3881,1 52472U 22049X   22183.58334491 -.00434319  00000-0 -80244-2 0  9996,2 52472  53.2171 344.6749 0001758  47.1578  60.9011 15.50065004  1308,6794.6730000000025,92.899,417.733,415.344,0.0
52472.0,STARLINK-3881,PAYLOAD,2022-07-02 22:00:00,15.49827561,0.0001533,53.2172,343.0861,49.4096,119.5985,-0.020138,-0.01037824,0.0,0 STARLINK-3881,1 52472U 22049X   22183.91667824 -.01037824  00000-0 -20138-1 0  9998,2 52472  53.2172 343.0861 0001533  49.4096 119.5985 15.49827561  1301,6795.3669999999975,92.914,418.274,416.19,0.0
52472.0,STARLINK-3881,PAYLOAD,2022-07-03 00:00:00,15.49654422,0.0001323,53.2171,342.6878,49.77,224.416,-0.020811,-0.01063303,0.0,0 STARLINK-3881,1 52472U 22049X   22184.00001157 -.01063303  00000-0 -20811-1 0  9999,2 52472  53.2171 342.6878 0001323  49.7700 224.4160 15.49654422  9218,6795.873000000001,92.924,418.637,416.839,0.0
52472.0,STARLINK-3881,PAYLOAD,2022-07-03 14:00:01,15.4832187,0.0001619,53.2176,339.9042,38.9948,249.8876,-0.021692,-0.01057881,0.0,0 STARLINK-3881,1 52472U 22049X   22184.58334491 -.01057881  00000-0 -21692-1 0  9994,2 52472  53.2176 339.9042 0001619  38.9948 249.8876 15.48321870  1301,6799.772,93.004,422.73800000000006,420.536,0.0
52472.0,STARLINK-3881,PAYLOAD,2022-07-03 22:00:00,15.47561918,0.0001406999999999,53.2172,338.3175,41.1792,306.2732,-0.02224,-0.01056145,0.0,0 STARLINK-3881,1 52472U 22049X   22184.91667824 -.01056145  00000-0 -22240-1 0  9992,2 52472  53.2172 338.3175 0001407  41.1792 306.2732 15.47561918  9366,6801.998000000001,93.05,424.82,422.906,0.0
52472.0,STARLINK-3881,PAYLOAD,2022-07-04 14:00:01,15.46042856,0.0001758,53.2174,335.1462,36.1087,65.748,-0.023468,-0.01057023,0.0,0 STARLINK-3881,1 52472U 22049X   22185.58334491 -.01057023  00000-0 -23468-1 0  9996,2 52472  53.2174 335.1462 0001758  36.1087  65.7480 15.46042856  9464,6806.453,93.141,429.514,427.121,0.0
52472.0,STARLINK-3881,PAYLOAD,2022-07-04 22:00:00,15.4528217,0.0001712,53.2173,333.5647,40.8193,116.8698,-0.024021,-0.01054133,0.0,0 STARLINK-3881,1 52472U 22049X   22185.91667824 -.01054133  00000-0 -24021-1 0  9997,2 52472  53.2173 333.5647 0001712  40.8193 116.8698 15.45282170  1308,6808.686,93.187,431.717,429.385,0.0
52472.0,STARLINK-3881,PAYLOAD,2022-07-05 14:00:01,15.43763187,0.0001631999999999,53.2175,330.4045,42.9868,223.6299,-0.025303,-0.0105403,0.0,0 STARLINK-3881,1 52472U 22049X   22186.58334491 -.01054030  00000-0 -25303-1 0  9992,2 52472  53.2175 330.4045 0001632  42.9868 223.6299 15.43763187  9617,6813.151999999999,93.279,436.129,433.905,0.0
52472.0,STARLINK-3881,PAYLOAD,2022-07-05 22:00:00,15.43005863,0.0001450999999999,53.2173,328.8281,42.5108,277.1992,-0.026035,-0.01071425,0.0,0 STARLINK-3881,1 52472U 22049X   22186.91667824 -.01071425  00000-0 -26035-1 0  9998,2 52472  53.2173 328.8281 0001451  42.5108 277.1992 15.43005863  1302,6815.380999999999,93.324,438.235,436.257,0.0
52472.0,STARLINK-3881,PAYLOAD,2022-07-06 14:00:01,15.414859900000002,0.0002074,53.2176,325.6791,25.8337,37.3286,-0.027391,-0.01071117,0.0,0 STARLINK-3881,1 52472U 22049X   22187.58334491 -.01071117  00000-0 -27391-1 0  9997,2 52472  53.2176 325.6791 0002074  25.8337  37.3286 15.41485990  1309,6819.86,93.416,443.139,440.31,0.0
52472.0,STARLINK-3881,PAYLOAD,2022-07-06 16:00:00,15.41295006,0.0002177,53.2175,325.2864,30.3079,135.5292,-0.027508,-0.01069036,0.0,0 STARLINK-3881,1 52472U 22049X   22187.66667824 -.01069036  00000-0 -27508-1 0  9992,2 52472  53.2175 325.2864 0002177  30.3079 135.5292 15.41295006  9788,6820.4230000000025,93.428,443.773,440.80300000000005,0.0
52472.0,STARLINK-3881,PAYLOAD,2022-07-06 22:00:00,15.40725659,0.0002174,53.2172,324.1079,26.0299,87.4891,-0.02803,-0.01068805,0.0,0 STARLINK-3881,1 52472U 22049X   22187.91667824 -.01068805  00000-0 -28030-1 0  9994,2 52472  53.2172 324.1079 0002174  26.0299  87.4891 15.40725659  1305,6822.103,93.462,445.452,442.485,0.0
52472.0,STARLINK-3881,PAYLOAD,2022-07-07 13:06:02,15.41068289,0.0001715,53.2158,321.1431,21.3745,338.7333,-0.0066113,-0.00268324,0.0,0 STARLINK-3881,1 52472U 22049X   22188.54585880 -.00268324  00000-0 -66113-2 0  9997,2 52472  53.2158 321.1431 0001715  21.3745 338.7333 15.41068289  9921,6821.092,93.442,444.127,441.787,0.0
52472.0,STARLINK-3881,PAYLOAD,2022-07-07 22:00:00,15.38449423,0.0001873,53.2171,319.404,34.135,224.9772,-0.030345,-0.01072664,0.0,0 STARLINK-3881,1 52472U 22049X   22188.91667824 -.01072664  00000-0 -30345-1 0  9995,2 52472  53.2171 319.4040 0001873  34.1350 224.9772 15.38449423  9978,6828.831,93.601,451.975,449.417,0.0
52472.0,STARLINK-3881,PAYLOAD,2022-07-08 14:00:01,15.36928345,0.0001779,53.2175,316.277,32.1311,319.4812,-0.03177,-0.01068863,0.0,0 STARLINK-3881,1 52472U 22049X   22189.58334491 -.01068863  00000-0 -31770-1 0  9999,2 52472  53.2175 316.2770 0001779  32.1311 319.4812 15.36928345  1304,6833.3359999999975,93.693,456.416,453.985,0.0
52472.0,STARLINK-3881,PAYLOAD,2022-07-08 22:00:01,15.36169404,0.0001489,53.2171,314.7163,41.9837,354.5732,-0.03258,-0.01069339,0.0,0 STARLINK-3881,1 52472U 22049X   22189.91668981 -.01069339  00000-0 -32580-1 0  9999,2 52472  53.2171 314.7163 0001489  41.9837 354.5732 15.36169404 10133,6835.5859999999975,93.74,458.469,456.4330000000001,0.0
